      2.10          N: GNSS NAV DATA                        RINEX VERSION / TYPE
fic2rin                                 11/14/2018 00:20:55 PGM / RUN BY / DATE
                                                            END OF HEADER
14 18 11 13 23 59 44.0-9.582983329892e-05 3.410605131648e-13 0.000000000000e+00
    1.100000000000e+01 1.184375000000e+01 4.729482716225e-09-1.757101552573e+00
    7.525086402893e-07 9.990370599553e-03 7.024034857750e-06 5.153640113831e+03
    2.591840000000e+05 2.086162567139e-07 2.695017650577e+00 7.264316082001e-08
    9.609057298092e-01 2.408750000000e+02-1.946041792246e+00-7.903900657759e-09
    4.357324357192e-11 1.000000000000e+00 2.027000000000e+03 0.000000000000e+00
    2.400000000000e+00 0.000000000000e+00-9.778887033463e-09 1.100000000000e+01
    2.520060000000e+05 4.000000000000e+00
10 18 11 13 23 59 44.0 1.645633019507e-04-4.320099833421e-12 0.000000000000e+00
    4.000000000000e+01-2.196875000000e+01 4.448756737146e-09 6.303999418879e-01
   -1.126900315285e-06 3.993186750449e-03 9.074807167053e-06 5.153665004730e+03
    2.591840000000e+05-7.450580596924e-09 1.567308193203e+00 1.210719347000e-07
    9.614837565378e-01 2.049375000000e+02-2.819058067827e+00-7.939616431179e-09
    3.189418566371e-10 1.000000000000e+00 2.027000000000e+03 0.000000000000e+00
    2.400000000000e+00 0.000000000000e+00 1.862645149231e-09 4.000000000000e+01
    2.520060000000e+05 4.000000000000e+00
 1 18 11 14  0  0  0.0-1.139543019235e-04-5.343281372916e-12 0.000000000000e+00
    4.300000000000e+01-8.340625000000e+01 4.040882604694e-09 2.589468162360e+00
   -4.353001713753e-06 8.152670226991e-03 6.744638085365e-06 5.153666950226e+03
    2.592000000000e+05-9.313225746155e-09 5.278932091682e-01-1.005828380585e-07
    9.733938524582e-01 2.565312500000e+02 6.996364620726e-01-7.838897950136e-09
    2.178662178596e-11 1.000000000000e+00 2.027000000000e+03 0.000000000000e+00
    2.400000000000e+00 0.000000000000e+00 5.587935447693e-09 4.300000000000e+01
    2.520060000000e+05 4.000000000000e+00
 2 18 11 14  0  0  0.0-5.788728594780e-05-1.057287590811e-11 0.000000000000e+00
    9.200000000000e+01-8.015625000000e+01 4.375539401636e-09 2.926899584407e+00
   -4.066154360771e-06 1.838888262864e-02 6.465241312981e-06 5.153598665237e+03
    2.592000000000e+05 1.639127731323e-07 4.632296026637e-01-1.695007085800e-07
    9.525225362727e-01 2.460937500000e+02-1.816619632928e+00-7.742822519637e-09
    2.642967233051e-11 1.000000000000e+00 2.027000000000e+03 0.000000000000e+00
    3.400000000000e+00 0.000000000000e+00-2.048909664154e-08 9.200000000000e+01
    2.520060000000e+05 4.000000000000e+00
 3 18 11 14  0  0  0.0 1.600049436092e-04 3.979039320257e-12 0.000000000000e+00
    8.400000000000e+01-3.350000000000e+01 4.391611499675e-09 1.477339824128e+00
   -1.814216375351e-06 1.840725890361e-03 8.957460522652e-06 5.153642049789e+03
    2.592000000000e+05-5.587935447693e-09 1.570659116782e+00 4.284083843231e-08
    9.614242260124e-01 2.044062500000e+02 7.069238026939e-01-7.901400553620e-09
    3.071556514086e-10 1.000000000000e+00 2.027000000000e+03 0.000000000000e+00
    2.400000000000e+00 0.000000000000e+00 2.328306436539e-09 8.400000000000e+01
    2.520060000000e+05 4.000000000000e+00
 8 18 11 14  0  0  0.0-1.220903359354e-04-1.364242052659e-12 0.000000000000e+00
    3.900000000000e+01 8.125000000000e-01 4.356610041724e-09-1.106655288132e+00
    9.872019290924e-08 3.768290509470e-03 3.850087523460e-06 5.153652183533e+03
    2.592000000000e+05-9.499490261078e-08-5.373327436656e-01-5.401670932770e-08
    9.700561097707e-01 3.121562500000e+02-4.135093985891e-01-8.189984002850e-09
    2.535819912792e-11 1.000000000000e+00 2.027000000000e+03 0.000000000000e+00
    2.400000000000e+00 0.000000000000e+00 5.122274160385e-09 3.900000000000e+01
    2.520060000000e+05 4.000000000000e+00
 5 18 11 14  0  0  0.0-2.169981598854e-07 2.273736754432e-13 0.000000000000e+00
    7.000000000000e+01-2.359375000000e+01 4.724482507946e-09-7.937737365937e-01
   -1.059845089912e-06 5.579654942267e-03 8.316710591316e-06 5.153575632095e+03
    2.592000000000e+05 7.636845111847e-08 1.546489976555e+00 4.470348358154e-08
    9.483083593639e-01 2.099375000000e+02 7.187112958389e-01-8.130695818974e-09
    3.050127050035e-10 1.000000000000e+00 2.027000000000e+03 0.000000000000e+00
    2.400000000000e+00 0.000000000000e+00-1.117587089539e-08 7.000000000000e+01
    2.520060000000e+05 4.000000000000e+00
 7 18 11 14  0  0  0.0 8.898647502065e-05-6.821210263297e-12 0.000000000000e+00
    4.800000000000e+01 2.787500000000e+01 4.748412076137e-09 1.955484656345e+00
    1.432374119759e-06 1.209129928611e-02 8.385628461838e-06 5.153632629395e+03
    2.592000000000e+05-3.222376108170e-07-2.602767075170e+00-4.842877388000e-08
    9.573563248194e-01 2.198437500000e+02-2.481372193123e+00-8.068550373224e-09
   -2.871548182937e-10 1.000000000000e+00 2.027000000000e+03 0.000000000000e+00
    2.400000000000e+00 0.000000000000e+00-1.117587089539e-08 4.800000000000e+01
    2.520060000000e+05 4.000000000000e+00
 4 18 11 14  0  0  0.0-4.456564784050e-05-2.273736754432e-11 0.000000000000e+00
    5.500000000000e+01 4.593750000000e+00 4.571261839976e-09-1.316606295194e+00
    2.961605787277e-07 1.367626234423e-02 3.483146429062e-06 5.153672782898e+03
    2.592000000000e+05 2.924352884293e-07-6.250402108851e-01-1.695007085800e-07
    9.589542643857e-01 3.112500000000e+02 5.768775142469e-01-8.245343451651e-09
    1.857220217820e-11 1.000000000000e+00 2.027000000000e+03 0.000000000000e+00
    2.400000000000e+00 6.300000000000e+01-5.587935447693e-09 5.500000000000e+01
    2.520060000000e+05 4.000000000000e+00
24 18 11 14  0  0  0.0-5.810987204313e-05-4.547473508865e-13 0.000000000000e+00
    1.100000000000e+01 3.196875000000e+01 4.992350808593e-09 2.974076644378e+00
    1.629814505577e-06 7.626446895301e-03 8.285045623779e-06 5.153620862961e+03
    2.592000000000e+05-1.173466444016e-07-2.665396018637e+00-8.754432201385e-08
    9.404920846189e-01 2.093437500000e+02 5.460984127452e-01-8.076407843376e-09
   -2.510818871398e-10 1.000000000000e+00 2.027000000000e+03 0.000000000000e+00
    2.400000000000e+00 0.000000000000e+00 2.793967723846e-09 1.100000000000e+01
    2.520060000000e+05 4.000000000000e+00
17 18 11 14  0  0  0.0-3.181071951985e-05 4.888534022029e-12 0.000000000000e+00
    9.000000000000e+00-3.906250000000e+00 4.100885104039e-09-1.501070205965e+00
   -4.842877388000e-08 1.284429035150e-02 4.077330231667e-06 5.153640865326e+03
    2.592000000000e+05 1.657754182816e-07-4.724976129421e-01 3.390014171600e-07
    9.837156406650e-01 3.139687500000e+02-1.762456284784e+00-7.987118409827e-09
   -7.928901699153e-11 1.000000000000e+00 2.027000000000e+03 0.000000000000e+00
    2.400000000000e+00 0.000000000000e+00-1.117587089539e-08 9.000000000000e+00
    2.520060000000e+05 4.000000000000e+00
22 18 11 14  0  0  0.0-5.731666460633e-04-9.890754881781e-12 0.000000000000e+00
    8.400000000000e+01-3.387500000000e+01 5.139856952816e-09-2.267976031539e+00
   -1.678243279457e-06 6.992352893576e-03 8.547678589821e-06 5.153661977768e+03
    2.592000000000e+05 1.117587089539e-07 1.504754664626e+00 9.313225746155e-08
    9.256963988792e-01 1.901875000000e+02-1.463124937346e+00-8.164625803722e-09
    3.478716331070e-10 1.000000000000e+00 2.027000000000e+03 0.000000000000e+00
    2.400000000000e+00 0.000000000000e+00-1.816079020500e-08 8.400000000000e+01
    2.520060000000e+05 4.000000000000e+00
16 18 11 14  0  0  0.0-9.778887033463e-07-2.046363078989e-12 0.000000000000e+00
    8.300000000000e+01 6.884375000000e+01 3.960879272235e-09-5.431693786477e-01
    3.559514880180e-06 1.013951539062e-02 6.649643182755e-06 5.153730388641e+03
    2.592000000000e+05 1.210719347000e-07-1.487392185249e+00 1.378357410431e-07
    9.851155962130e-01 2.636875000000e+02 5.184920470121e-01-7.967474734446e-09
   -9.536111503035e-11 1.000000000000e+00 2.027000000000e+03 0.000000000000e+00
    2.400000000000e+00 0.000000000000e+00-1.071020960808e-08 8.300000000000e+01
    2.520060000000e+05 4.000000000000e+00
27 18 11 14  0  0  0.0-1.771049574018e-05-5.115907697473e-12 0.000000000000e+00
    9.700000000000e+01-3.156250000000e+00 4.145886978548e-09-1.492488972819e+00
   -1.043081283569e-07 6.166651612148e-03 3.922730684280e-06 5.153699106216e+03
    2.592000000000e+05 3.725290298462e-08-5.275165165403e-01-1.508742570877e-07
    9.782975743408e-01 3.148750000000e+02 4.374922318104e-01-8.037834808083e-09
    7.143154683922e-13 1.000000000000e+00 2.027000000000e+03 0.000000000000e+00
    2.400000000000e+00 0.000000000000e+00 1.862645149231e-09 9.700000000000e+01
    2.520060000000e+05 4.000000000000e+00
30 18 11 14  0  0  0.0-4.372093826532e-06-5.684341886081e-12 0.000000000000e+00
    6.200000000000e+01 2.637500000000e+01 5.084854661750e-09 1.935065890942e+00
    1.454725861549e-06 3.572650603019e-03 7.996335625648e-06 5.153664375305e+03
    2.592000000000e+05-5.215406417847e-08-2.571697325493e+00 6.891787052155e-08
    9.428758394090e-01 2.175625000000e+02-2.979304999486e+00-8.251057975398e-09
   -2.810831368123e-10 1.000000000000e+00 2.027000000000e+03 0.000000000000e+00
    2.400000000000e+00 0.000000000000e+00 3.725290298462e-09 6.200000000000e+01
    2.520060000000e+05 4.000000000000e+00
25 18 11 14  0  0  0.0-6.764070130885e-04-5.570655048359e-12 0.000000000000e+00
    5.300000000000e+01 6.706250000000e+01 4.300179119721e-09 9.959276009536e-01
    3.548339009285e-06 7.598207215779e-03 6.483867764473e-06 5.153568693161e+03
    2.592000000000e+05-5.960464477539e-08-1.568238250686e+00 1.061707735062e-07
    9.722641915062e-01 2.602812500000e+02 8.507621331549e-01-8.102123200238e-09
   -1.317912039184e-10 1.000000000000e+00 2.027000000000e+03 0.000000000000e+00
    2.400000000000e+00 0.000000000000e+00 5.587935447693e-09 5.300000000000e+01
    2.520060000000e+05 4.000000000000e+00
